[
    {
        "Altitude(m)": 611967.189510857,
        "Argument of Periapsis(deg)": 0.0,
        "Eccentricity": 0.0,
        "Inclination(deg)": 60.0,
        "Latitude(deg)": 59.14019364300461,
        "Longitude(deg)": 166.09223335915507,
        "Mean Anomaly(deg)": 98.18180000000002,
        "RAAN(deg)": 160.0,
        "Satellite Name": "Test1 710",
        "Satellite Number": 710,
        "Semi-Major Axis(m)": 6980739.136638005,
        "Time(s)": 0
    },
    {
        "Altitude(m)": 611934.3887189787,
        "Argument of Periapsis(deg)": 0.00010418945913296404,
        "Eccentricity": 0.0,
        "Inclination(deg)": 60.0,
        "Latitude(deg)": 58.98655375785165,
        "Longitude(deg)": 167.21547903446918,
        "Mean Anomaly(deg)": 98.80190614546183,
        "RAAN(deg)": 159.99957995086024,
        "Satellite Name": "Test1 710",
        "Satellite Number": 710,
        "Semi-Major Axis(m)": 6980739.136638005,
        "Time(s)": 10
    },
    {
        "Altitude(m)": 611899.2832887223,
        "Argument of Periapsis(deg)": 0.0002083789182659281,
        "Eccentricity": 0.0,
        "Inclination(deg)": 60.0,
        "Latitude(deg)": 58.822535770829276,
        "Longitude(deg)": 168.3280592370206,
        "Mean Anomaly(deg)": 99.42201229092365,
        "RAAN(deg)": 159.9991599017205,
        "Satellite Name": "Test1 710",
        "Satellite Number": 710,
        "Semi-Major Axis(m)": 6980739.136638005,
        "Time(s)": 20
    },
    {
        "Altitude(m)": 611861.8934547423,
        "Argument of Periapsis(deg)": 0.00031256837739889213,
        "Eccentricity": 0.0,
        "Inclination(deg)": 60.0,
        "Latitude(deg)": 58.64830273343637,
        "Longitude(deg)": 169.4294621764458,
        "Mean Anomaly(deg)": 100.0421184363855,
        "RAAN(deg)": 159.99873985258077,
        "Satellite Name": "Test1 710",
        "Satellite Number": 710,
        "Semi-Major Axis(m)": 6980739.136638005,
        "Time(s)": 30
    },
    {
        "Altitude(m)": 611822.2407775249,
        "Argument of Periapsis(deg)": 0.0004167578365318562,
        "Eccentricity": 0.0,
        "Inclination(deg)": 60.0,
        "Latitude(deg)": 58.46402414604955,
        "Longitude(deg)": 170.51921681153772,
        "Mean Anomaly(deg)": 100.66222458184733,
        "RAAN(deg)": 159.99831980344103,
        "Satellite Name": "Test1 710",
        "Satellite Number": 710,
        "Semi-Major Axis(m)": 6980739.136638005,
        "Time(s)": 40
    },
    {
        "Altitude(m)": 611780.3481331834,
        "Argument of Periapsis(deg)": 0.0005209472956648203,
        "Eccentricity": 0.0,
        "Inclination(deg)": 60.0,
        "Latitude(deg)": 58.26987524139989,
        "Longitude(deg)": 171.59689207387692,
        "Mean Anomaly(deg)": 101.28233072730913,
        "RAAN(deg)": 159.99789975430127,
        "Satellite Name": "Test1 710",
        "Satellite Number": 710,
        "Semi-Major Axis(m)": 6980739.136638005,
        "Time(s)": 50
    },
    {
        "Altitude(m)": 611736.2397026463,
        "Argument of Periapsis(deg)": 0.0006251367547977843,
        "Eccentricity": 0.0,
        "Inclination(deg)": 60.0,
        "Latitude(deg)": 58.06603627450515,
        "Longitude(deg)": 172.66209731433696,
        "Mean Anomaly(deg)": 101.90243687277095,
        "RAAN(deg)": 159.99747970516154,
        "Satellite Name": "Test1 710",
        "Satellite Number": 710,
        "Semi-Major Axis(m)": 6980739.136638005,
        "Time(s)": 60
    },
    {
        "Altitude(m)": 611689.9409602049,
        "Argument of Periapsis(deg)": 0.0007293262139307483,
        "Eccentricity": 0.0,
        "Inclination(deg)": 60.0,
        "Latitude(deg)": 57.85269182444336,
        "Longitude(deg)": 173.7144824798201,
        "Mean Anomaly(deg)": 102.52254301823282,
        "RAAN(deg)": 159.9970596560218,
        "Satellite Name": "Test1 710",
        "Satellite Number": 710,
        "Semi-Major Axis(m)": 6980739.136638005,
        "Time(s)": 70
    },
    {
        "Altitude(m)": 611641.4786614545,
        "Argument of Periapsis(deg)": 0.0008335156730637124,
        "Eccentricity": 0.0,
        "Inclination(deg)": 60.0,
        "Latitude(deg)": 57.63003011281127,
        "Longitude(deg)": 174.75373652973755,
        "Mean Anomaly(deg)": 103.14264916369464,
        "RAAN(deg)": 159.99663960688207,
        "Satellite Name": "Test1 710",
        "Satellite Number": 710,
        "Semi-Major Axis(m)": 6980739.136638005,
        "Time(s)": 80
    },
    {
        "Altitude(m)": 611590.8808306224,
        "Argument of Periapsis(deg)": 0.0009377051321966765,
        "Eccentricity": 0.0,
        "Inclination(deg)": 60.0,
        "Latitude(deg)": 57.39824234313441,
        "Longitude(deg)": 175.77958714191155,
        "Mean Anomaly(deg)": 103.76275530915649,
        "RAAN(deg)": 159.9962195577423,
        "Satellite Name": "Test1 710",
        "Satellite Number": 710,
        "Semi-Major Axis(m)": 6980739.136638005,
        "Time(s)": 90
    },
    {
        "Altitude(m)": 611538.176747287,
        "Argument of Periapsis(deg)": 0.0010418945913296407,
        "Eccentricity": 0.0,
        "Inclination(deg)": 60.0,
        "Latitude(deg)": 57.15752206491736,
        "Longitude(deg)": 176.79180021991397,
        "Mean Anomaly(deg)": 104.38286145461831,
        "RAAN(deg)": 159.99579950860257,
        "Satellite Name": "Test1 710",
        "Satellite Number": 710,
        "Semi-Major Axis(m)": 6980739.136638005,
        "Time(s)": 100
    },
    {
        "Altitude(m)": 611483.3969324653,
        "Argument of Periapsis(deg)": 0.0011460840504626045,
        "Eccentricity": 0.0,
        "Inclination(deg)": 60.0,
        "Latitude(deg)": 56.90806456543656,
        "Longitude(deg)": 177.7901777142704,
        "Mean Anomaly(deg)": 105.00296760008013,
        "RAAN(deg)": 159.99537945946284,
        "Satellite Name": "Test1 710",
        "Satellite Number": 710,
        "Semi-Major Axis(m)": 6980739.136638005,
        "Time(s)": 110
    },
    {
        "Altitude(m)": 611426.5731341753,
        "Argument of Periapsis(deg)": 0.0012502735095955685,
        "Eccentricity": 0.0,
        "Inclination(deg)": 60.0,
        "Latitude(deg)": 56.65006629179512,
        "Longitude(deg)": 178.77455680851406,
        "Mean Anomaly(deg)": 105.62307374554194,
        "RAAN(deg)": 159.9949594103231,
        "Satellite Name": "Test1 710",
        "Satellite Number": 710,
        "Semi-Major Axis(m)": 6980739.136638005,
        "Time(s)": 120
    },
    {
        "Altitude(m)": 611367.7383123226,
        "Argument of Periapsis(deg)": 0.0013544629687285324,
        "Eccentricity": 0.0,
        "Inclination(deg)": 60.0,
        "Latitude(deg)": 56.38372430521007,
        "Longitude(deg)": 179.744808981944,
        "Mean Anomaly(deg)": 106.2431798910038,
        "RAAN(deg)": 159.99453936118334,
        "Satellite Name": "Test1 710",
        "Satellite Number": 710,
        "Semi-Major Axis(m)": 6980739.136638005,
        "Time(s)": 130
    },
    {
        "Altitude(m)": 611306.926623045,
        "Argument of Periapsis(deg)": 0.0014586524278614966,
        "Eccentricity": 0.0,
        "Inclination(deg)": 60.0,
        "Latitude(deg)": 56.10923576897786,
        "Longitude(deg)": -179.29916253992062,
        "Mean Anomaly(deg)": 106.86328603646564,
        "RAAN(deg)": 159.9941193120436,
        "Satellite Name": "Test1 710",
        "Satellite Number": 710,
        "Semi-Major Axis(m)": 6980739.136638005,
        "Time(s)": 140
    },
    {
        "Altitude(m)": 611244.1734024913,
        "Argument of Periapsis(deg)": 0.0015628418869944607,
        "Eccentricity": 0.0,
        "Inclination(deg)": 60.0,
        "Latitude(deg)": 55.82679747106299,
        "Longitude(deg)": -178.35742389874986,
        "Mean Anomaly(deg)": 107.48339218192744,
        "RAAN(deg)": 159.99369926290385,
        "Satellite Name": "Test1 710",
        "Satellite Number": 710,
        "Semi-Major Axis(m)": 6980739.136638005,
        "Time(s)": 150
    },
    {
        "Altitude(m)": 611179.5151499851,
        "Argument of Periapsis(deg)": 0.0016670313461274247,
        "Eccentricity": 0.0,
        "Inclination(deg)": 60.0,
        "Latitude(deg)": 55.53660538181345,
        "Longitude(deg)": -177.43001177226438,
        "Mean Anomaly(deg)": 108.10349832738926,
        "RAAN(deg)": 159.99327921376414,
        "Satellite Name": "Test1 710",
        "Satellite Number": 710,
        "Semi-Major Axis(m)": 6980739.136638005,
        "Time(s)": 160
    },
    {
        "Altitude(m)": 611112.9895106534,
        "Argument of Periapsis(deg)": 0.0017712208052603888,
        "Eccentricity": 0.0,
        "Inclination(deg)": 60.0,
        "Latitude(deg)": 55.238854246898924,
        "Longitude(deg)": -176.5169360917238,
        "Mean Anomaly(deg)": 108.72360447285111,
        "RAAN(deg)": 159.99285916462438,
        "Satellite Name": "Test1 710",
        "Satellite Number": 710,
        "Semi-Major Axis(m)": 6980739.136638005,
        "Time(s)": 170
    },
    {
        "Altitude(m)": 611044.6352574866,
        "Argument of Periapsis(deg)": 0.001875410264393353,
        "Eccentricity": 0.0,
        "Inclination(deg)": 60.0,
        "Latitude(deg)": 54.93373721519699,
        "Longitude(deg)": -175.61818126430123,
        "Mean Anomaly(deg)": 109.34371061831294,
        "RAAN(deg)": 159.99243911548464,
        "Satellite Name": "Test1 710",
        "Satellite Number": 710,
        "Semi-Major Axis(m)": 6980739.136638005,
        "Time(s)": 180
    },
    {
        "Altitude(m)": 610974.4922728543,
        "Argument of Periapsis(deg)": 0.0019795997235263173,
        "Eccentricity": 0.0,
        "Inclination(deg)": 60.0,
        "Latitude(deg)": 54.62144550104595,
        "Longitude(deg)": -174.73370739700368,
        "Mean Anomaly(deg)": 109.9638167637748,
        "RAAN(deg)": 159.99201906634488,
        "Satellite Name": "Test1 710",
        "Satellite Number": 710,
        "Semi-Major Axis(m)": 6980739.136638005,
        "Time(s)": 190
    }
]